IRIDIUM 166             
1 43570U 18061B   24047.56095594  .00000068  00000+0  17394-4 0  9996
2 43570  86.3930  52.6335 0002016  98.4773 261.6652 14.34218222291336
IRIDIUM 158             
1 43571U 18061C   24047.52924384  .00000031  00000+0  41302-5 0  9998
2 43571  86.3931  52.6558 0002343  94.6974 265.4489 14.34217123291293
IRIDIUM 165             
1 43572U 18061D   24047.55461299  .00000041  00000+0  74696-5 0  9996
2 43572  86.3932  52.6755 0002360  95.9822 264.1643 14.34217593291322
IRIDIUM 155             
1 43573U 18061E   24047.51655339  .00000020  00000+0  32398-7 0  9995
2 43573  86.3929  52.6025 0001964  88.9503 271.1918 14.34216046291286
IRIDIUM 154             
1 43574U 18061F   24047.49752803 -.00000017  00000+0 -13187-4 0  9997
2 43574  86.3927  52.7025 0002249  85.2621 274.8831 14.34218417291338
IRIDIUM 163             
1 43575U 18061G   24047.54827121  .00000082  00000+0  22093-4 0  9996
2 43575  86.3929  52.6230 0002247  87.0378 273.1075 14.34218766291312
IRIDIUM 156             
1 43576U 18061H   24047.52289527  .00000074  00000+0  19308-4 0  9993
2 43576  86.3930  52.6397 0002164  95.3102 264.8341 14.34216122291300
IRIDIUM 164             
1 43577U 18061J   24047.57363907  .00000122  00000+0  36639-4 0  9994
2 43577  86.3931  52.6457 0002391  91.9920 268.1549 14.34218171291359
